STARLINK-36606          
1 67845U 26033AA  26074.58335648 -.01970460  00000+0 -21271-1 0  9997
2 67845  42.9993 235.4375 0001441 280.1395 167.7486 15.65976960  5610
STARLINK-36658          
1 67846U 26033AB  26074.58335648 -.01929611  00000+0 -26631-1 0  9995
2 67846  42.9994 235.6836 0001735 267.3083  81.4629 15.59704343  5611
STARLINK-36618          
1 67847U 26033AC  26074.48551679  .00792460  26458-3  23235-2 0  9993
2 67847  42.9756 233.0166 0002380 240.9776 119.0861 15.91926173  5573
STARLINK-36660          
1 67848U 26033AD  26074.58335648 -.01911378  00000+0 -27863-1 0  9996
2 67848  42.9992 235.7441 0001531 268.4697  55.8459 15.58247916  5614
STARLINK-36602          
1 67849U 26033AE  26074.58335648 -.01919265  00000+0 -27378-1 0  9991
2 67849  42.9991 235.7046 0001508 266.6256  73.6275 15.58829542  5615
STARLINK-36840          
1 67850U 26034A   26074.54781936  .00190736  00000+0  94572-3 0  9998
2 67850  53.1586 181.9998 0001374  44.0981 316.0151 15.80941540  4864
STARLINK-36348          
1 67851U 26034B   26074.54708248  .00302932  00000+0  14815-2 0  9998
2 67851  53.1586 181.9944 0000922 112.7296 247.3824 15.80926408  4865
STARLINK-36276          
1 67852U 26034C   26074.54633453  .00247967  00000+0  12218-2 0  9995
2 67852  53.1586 181.9895 0001265  44.0950 316.0174 15.80913543  4864
STARLINK-36785          
1 67853U 26034D   26074.60880202  .00277881  00000+0  13644-2 0  9991
2 67853  53.1590 181.6676 0001223  42.4710 317.6408 15.80908461  4875
STARLINK-36608          
1 67854U 26034E   26074.60805121  .00295773  00000+0  14463-2 0  9999
2 67854  53.1585 181.6619 0001399  45.2824 314.8312 15.80948850  4866
STARLINK-36838          
1 67855U 26034F   26074.60730175  .00271147  00000+0  13324-2 0  9990
2 67855  53.1586 181.6562 0001714 135.3898 224.7263 15.80908441  4875
STARLINK-36843          
1 67856U 26034G   26074.54258266  .00346824  00000+0  16903-2 0  9991
2 67856  53.1585 181.9636 0001855  25.2817 334.8296 15.80882929  4864
STARLINK-36828          
1 67857U 26034H   26074.60654948  .00320589  00000+0  15623-2 0  9994
2 67857  53.1585 181.6512 0001101  98.8792 261.2356 15.80954702  4877
STARLINK-36837          
1 67858U 26034J   26074.60505072  .00321606  00000+0  15694-2 0  9997
2 67858  53.1585 181.6404 0001390 104.6030 255.5148 15.80923227  4872
STARLINK-36393          
1 67859U 26034K   26074.60429992  .00306015  00000+0  14943-2 0  9997
2 67859  53.1584 181.6359 0001562  40.3669 319.7469 15.80951646  4871
STARLINK-35873          
1 67860U 26034L   26074.60355228  .00323799  00000+0  15804-2 0  9994
2 67860  53.1588 181.6317 0001037 116.1185 243.9945 15.80912319  4908
