[{"OBJECT_NAME":"STARLINK-36606","OBJECT_ID":"2026-033AA","EPOCH":"2026-03-15T14:00:01.999872","MEAN_MOTION":15.6597696,"ECCENTRICITY":0.00014413,"INCLINATION":42.9993,"RA_OF_ASC_NODE":235.4375,"ARG_OF_PERICENTER":280.1395,"MEAN_ANOMALY":167.7486,"EPHEMERIS_TYPE":0,"CLASSIFICATION_TYPE":"U","NORAD_CAT_ID":67845,"ELEMENT_SET_NO":999,"REV_AT_EPOCH":561,"BSTAR":-0.021270704,"MEAN_MOTION_DOT":-0.0197046,"MEAN_MOTION_DDOT":0},{"OBJECT_NAME":"STARLINK-36658","OBJECT_ID":"2026-033AB","EPOCH":"2026-03-15T14:00:01.999872","MEAN_MOTION":15.59704343,"ECCENTRICITY":0.00017357,"INCLINATION":42.9994,"RA_OF_ASC_NODE":235.6836,"ARG_OF_PERICENTER":267.3083,"MEAN_ANOMALY":81.4629,"EPHEMERIS_TYPE":0,"CLASSIFICATION_TYPE":"U","NORAD_CAT_ID":67846,"ELEMENT_SET_NO":999,"REV_AT_EPOCH":561,"BSTAR":-0.026631114,"MEAN_MOTION_DOT":-0.01929611,"MEAN_MOTION_DDOT":0},{"OBJECT_NAME":"STARLINK-36618","OBJECT_ID":"2026-033AC","EPOCH":"2026-03-15T11:39:08.650656","MEAN_MOTION":15.91926173,"ECCENTRICITY":0.000238,"INCLINATION":42.9756,"RA_OF_ASC_NODE":233.0166,"ARG_OF_PERICENTER":240.9776,"MEAN_ANOMALY":119.0861,"EPHEMERIS_TYPE":0,"CLASSIFICATION_TYPE":"U","NORAD_CAT_ID":67847,"ELEMENT_SET_NO":999,"REV_AT_EPOCH":557,"BSTAR":0.0023235029,"MEAN_MOTION_DOT":0.0079246,"MEAN_MOTION_DDOT":0.00026457524},{"OBJECT_NAME":"STARLINK-36660","OBJECT_ID":"2026-033AD","EPOCH":"2026-03-15T14:00:01.999872","MEAN_MOTION":15.58247916,"ECCENTRICITY":0.00015319,"INCLINATION":42.9992,"RA_OF_ASC_NODE":235.7441,"ARG_OF_PERICENTER":268.4697,"MEAN_ANOMALY":55.8459,"EPHEMERIS_TYPE":0,"CLASSIFICATION_TYPE":"U","NORAD_CAT_ID":67848,"ELEMENT_SET_NO":999,"REV_AT_EPOCH":561,"BSTAR":-0.0278633,"MEAN_MOTION_DOT":-0.01911378,"MEAN_MOTION_DDOT":0},{"OBJECT_NAME":"STARLINK-36602","OBJECT_ID":"2026-033AE","EPOCH":"2026-03-15T14:00:01.999872","MEAN_MOTION":15.58829542,"ECCENTRICITY":0.00015082,"INCLINATION":42.9991,"RA_OF_ASC_NODE":235.7046,"ARG_OF_PERICENTER":266.6256,"MEAN_ANOMALY":73.6275,"EPHEMERIS_TYPE":0,"CLASSIFICATION_TYPE":"U","NORAD_CAT_ID":67849,"ELEMENT_SET_NO":999,"REV_AT_EPOCH":561,"BSTAR":-0.027377988,"MEAN_MOTION_DOT":-0.01919265,"MEAN_MOTION_DDOT":0},{"OBJECT_NAME":"STARLINK-36840","OBJECT_ID":"2026-034A","EPOCH":"2026-03-15T13:08:51.592704","MEAN_MOTION":15.8094154,"ECCENTRICITY":0.00013749,"INCLINATION":53.1586,"RA_OF_ASC_NODE":181.9998,"ARG_OF_PERICENTER":44.0981,"MEAN_ANOMALY":316.0151,"EPHEMERIS_TYPE":0,"CLASSIFICATION_TYPE":"U","NORAD_CAT_ID":67850,"ELEMENT_SET_NO":999,"REV_AT_EPOCH":486,"BSTAR":0.00094571682,"MEAN_MOTION_DOT":0.00190736,"MEAN_MOTION_DDOT":0},{"OBJECT_NAME":"STARLINK-36348","OBJECT_ID":"2026-034B","EPOCH":"2026-03-15T13:07:47.926272","MEAN_MOTION":15.80926408,"ECCENTRICITY":9.22e-5,"INCLINATION":53.1586,"RA_OF_ASC_NODE":181.9944,"ARG_OF_PERICENTER":112.7296,"MEAN_ANOMALY":247.3824,"EPHEMERIS_TYPE":0,"CLASSIFICATION_TYPE":"U","NORAD_CAT_ID":67851,"ELEMENT_SET_NO":999,"REV_AT_EPOCH":486,"BSTAR":0.0014814572,"MEAN_MOTION_DOT":0.00302932,"MEAN_MOTION_DDOT":0},{"OBJECT_NAME":"STARLINK-36276","OBJECT_ID":"2026-034C","EPOCH":"2026-03-15T13:06:43.303392","MEAN_MOTION":15.80913543,"ECCENTRICITY":0.00012659,"INCLINATION":53.1586,"RA_OF_ASC_NODE":181.9895,"ARG_OF_PERICENTER":44.095,"MEAN_ANOMALY":316.0174,"EPHEMERIS_TYPE":0,"CLASSIFICATION_TYPE":"U","NORAD_CAT_ID":67852,"ELEMENT_SET_NO":999,"REV_AT_EPOCH":486,"BSTAR":0.0012218413,"MEAN_MOTION_DOT":0.00247967,"MEAN_MOTION_DDOT":0},{"OBJECT_NAME":"STARLINK-36785","OBJECT_ID":"2026-034D","EPOCH":"2026-03-15T14:36:40.494528","MEAN_MOTION":15.80908461,"ECCENTRICITY":0.00012231,"INCLINATION":53.159,"RA_OF_ASC_NODE":181.6676,"ARG_OF_PERICENTER":42.471,"MEAN_ANOMALY":317.6408,"EPHEMERIS_TYPE":0,"CLASSIFICATION_TYPE":"U","NORAD_CAT_ID":67853,"ELEMENT_SET_NO":999,"REV_AT_EPOCH":487,"BSTAR":0.0013643615,"MEAN_MOTION_DOT":0.00277881,"MEAN_MOTION_DDOT":0},{"OBJECT_NAME":"STARLINK-36608","OBJECT_ID":"2026-034E","EPOCH":"2026-03-15T14:35:35.624544","MEAN_MOTION":15.8094885,"ECCENTRICITY":0.00013994,"INCLINATION":53.1585,"RA_OF_ASC_NODE":181.6619,"ARG_OF_PERICENTER":45.2824,"MEAN_ANOMALY":314.8312,"EPHEMERIS_TYPE":0,"CLASSIFICATION_TYPE":"U","NORAD_CAT_ID":67854,"ELEMENT_SET_NO":999,"REV_AT_EPOCH":486,"BSTAR":0.0014462686,"MEAN_MOTION_DOT":0.00295773,"MEAN_MOTION_DDOT":0},{"OBJECT_NAME":"STARLINK-36838","OBJECT_ID":"2026-034F","EPOCH":"2026-03-15T14:34:30.871200","MEAN_MOTION":15.80908441,"ECCENTRICITY":0.00017147,"INCLINATION":53.1586,"RA_OF_ASC_NODE":181.6562,"ARG_OF_PERICENTER":135.3898,"MEAN_ANOMALY":224.7263,"EPHEMERIS_TYPE":0,"CLASSIFICATION_TYPE":"U","NORAD_CAT_ID":67855,"ELEMENT_SET_NO":999,"REV_AT_EPOCH":487,"BSTAR":0.0013324352,"MEAN_MOTION_DOT":0.00271147,"MEAN_MOTION_DDOT":0},{"OBJECT_NAME":"STARLINK-36843","OBJECT_ID":"2026-034G","EPOCH":"2026-03-15T13:01:19.141824","MEAN_MOTION":15.80882929,"ECCENTRICITY":0.00018555,"INCLINATION":53.1585,"RA_OF_ASC_NODE":181.9636,"ARG_OF_PERICENTER":25.2817,"MEAN_ANOMALY":334.8296,"EPHEMERIS_TYPE":0,"CLASSIFICATION_TYPE":"U","NORAD_CAT_ID":67856,"ELEMENT_SET_NO":999,"REV_AT_EPOCH":486,"BSTAR":0.0016903269,"MEAN_MOTION_DOT":0.00346824,"MEAN_MOTION_DDOT":0},{"OBJECT_NAME":"STARLINK-36828","OBJECT_ID":"2026-034H","EPOCH":"2026-03-15T14:33:25.875072","MEAN_MOTION":15.80954702,"ECCENTRICITY":0.00011017,"INCLINATION":53.1585,"RA_OF_ASC_NODE":181.6512,"ARG_OF_PERICENTER":98.8792,"MEAN_ANOMALY":261.2356,"EPHEMERIS_TYPE":0,"CLASSIFICATION_TYPE":"U","NORAD_CAT_ID":67857,"ELEMENT_SET_NO":999,"REV_AT_EPOCH":487,"BSTAR":0.0015623444,"MEAN_MOTION_DOT":0.00320589,"MEAN_MOTION_DDOT":0},{"OBJECT_NAME":"STARLINK-36837","OBJECT_ID":"2026-034J","EPOCH":"2026-03-15T14:31:16.382208","MEAN_MOTION":15.80923227,"ECCENTRICITY":0.00013909,"INCLINATION":53.1585,"RA_OF_ASC_NODE":181.6404,"ARG_OF_PERICENTER":104.603,"MEAN_ANOMALY":255.5148,"EPHEMERIS_TYPE":0,"CLASSIFICATION_TYPE":"U","NORAD_CAT_ID":67858,"ELEMENT_SET_NO":999,"REV_AT_EPOCH":487,"BSTAR":0.0015693875,"MEAN_MOTION_DOT":0.00321606,"MEAN_MOTION_DDOT":0},{"OBJECT_NAME":"STARLINK-36393","OBJECT_ID":"2026-034K","EPOCH":"2026-03-15T14:30:11.513088","MEAN_MOTION":15.80951646,"ECCENTRICITY":0.00015629,"INCLINATION":53.1584,"RA_OF_ASC_NODE":181.6359,"ARG_OF_PERICENTER":40.3669,"MEAN_ANOMALY":319.7469,"EPHEMERIS_TYPE":0,"CLASSIFICATION_TYPE":"U","NORAD_CAT_ID":67859,"ELEMENT_SET_NO":999,"REV_AT_EPOCH":487,"BSTAR":0.0014942535,"MEAN_MOTION_DOT":0.00306015,"MEAN_MOTION_DDOT":0},{"OBJECT_NAME":"STARLINK-35873","OBJECT_ID":"2026-034L","EPOCH":"2026-03-15T14:29:06.916992","MEAN_MOTION":15.80912319,"ECCENTRICITY":0.00010371,"INCLINATION":53.1588,"RA_OF_ASC_NODE":181.6317,"ARG_OF_PERICENTER":116.1185,"MEAN_ANOMALY":243.9945,"EPHEMERIS_TYPE":0,"CLASSIFICATION_TYPE":"U","NORAD_CAT_ID":67860,"ELEMENT_SET_NO":999,"REV_AT_EPOCH":490,"BSTAR":0.0015804318,"MEAN_MOTION_DOT":0.00323799,"MEAN_MOTION_DDOT":0}]
